{
"type": "FeatureCollection",
"name": "merged-9-17",
"crs": { "type": "name", "properties": { "name": "urn:ogc:def:crs:OGC:1.3:CRS84" } },
"features": [
{ "type": "Feature", "properties": { "id": null, "Name": "HAI-N-1", "description": null, "timestamp": null, "begin": null, "end": null, "altitudeMode": null, "tessellate": -1, "extrude": 0, "visibility": -1, "drawOrder": null, "icon": null }, "geometry": { "type": "Polygon", "coordinates": [ [ [ 41.6743449, 27.5558323, 0.0 ], [ 41.4266376, 27.5917809, 0.0 ], [ 40.449194, 27.2792035, 0.0 ], [ 39.8685313, 26.9732315, 0.0 ], [ 40.1000384, 25.9958059, 0.0 ], [ 40.1802325, 25.9423501, 0.0 ], [ 41.3195209, 26.8705078, 0.0 ], [ 41.4749675, 26.9786996, 0.0 ], [ 41.5219483, 27.0178258, 0.0 ], [ 41.5497188, 27.0486836, 0.0 ], [ 41.5692882, 27.076811, 0.0 ], [ 41.583558, 27.1706408, 0.0 ], [ 41.6099186, 27.2414036, 0.0 ], [ 41.653877, 27.3313975, 0.0 ], [ 41.6620272, 27.3408026, 0.0 ], [ 41.6693203, 27.3473863, 0.0 ], [ 41.7400167, 27.3990269, 0.0 ], [ 41.747188, 27.4046625, 0.0 ], [ 41.7540168, 27.4109835, 0.0 ], [ 41.7677689, 27.4324003, 0.0 ], [ 41.7817191, 27.4641388, 0.0 ], [ 41.7445544, 27.4736581, 0.0 ], [ 41.7277316, 27.4739627, 0.0 ], [ 41.7174319, 27.4663473, 0.0 ], [ 41.7109088, 27.4648242, 0.0 ], [ 41.6992358, 27.4698505, 0.0 ], [ 41.6911677, 27.4806637, 0.0 ], [ 41.6956309, 27.4872121, 0.0 ], [ 41.6976909, 27.4922373, 0.0 ], [ 41.6985492, 27.5006122, 0.0 ], [ 41.6985492, 27.5100522, 0.0 ], [ 41.6972617, 27.5143913, 0.0 ], [ 41.6957168, 27.5181974, 0.0 ], [ 41.6967896, 27.5234305, 0.0 ], [ 41.6978196, 27.5270079, 0.0 ], [ 41.6963605, 27.5325641, 0.0 ], [ 41.6944293, 27.536655, 0.0 ], [ 41.7015532, 27.553169, 0.0 ], [ 41.6995791, 27.5552997, 0.0 ], [ 41.6743449, 27.5558323, 0.0 ] ] ] } }
]
}
